GLOBALSTAR M068         
1 32266U 07048D   25059.63223385 -.00000068  00000+0  19895-3 0  9990
2 32266  51.9874 273.1700 0000098 184.8124 213.0243 12.62816323804135
GLOBALSTAR M079         
1 37188U 10054A   25059.63267405 -.00000071  00000+0  18182-3 0  9992
2 37188  52.0029 110.2443 0000663  94.6370  43.5836 12.62271341662749
GLOBALSTAR M074         
1 37189U 10054B   25059.58592144 -.00000065  00000+0  21711-3 0  9993
2 37189  52.0005 109.7270 0000646 130.0151  34.7332 12.62266877663414
GLOBALSTAR M076         
1 37190U 10054C   25060.55920194 -.00000066  00000+0  21283-3 0  9999
2 37190  52.0020 106.9212 0000857 114.0257  38.2414 12.62278232663543
GLOBALSTAR M077         
1 37191U 10054D   25060.21407712 -.00000096  00000+0  44147-4 0  9997
2 37191  52.0074  64.7993 0000378 106.1549 334.7438 12.62271346664252
GLOBALSTAR M075         
1 37192U 10054E   25057.29973642 -.00000097  00000+0  37980-4 0  9990
2 37192  51.9939 159.1628 0000773 117.5523 275.9205 12.62273332661849
GLOBALSTAR M073         
1 37193U 10054F   25059.78505631 -.00000088  00000+0  89861-4 0  9991
2 37193  52.0061  65.3334 0000484  98.8028  71.5602 12.62263851664142
GLOBALSTAR M083         
1 37739U 11033A   25059.84360111 -.00000087  00000+0  91956-4 0  9991
2 37739  51.9884  14.0325 0000476  55.8434 322.3417 12.62259724633179
GLOBALSTAR M088         
1 37740U 11033B   25060.08689642 -.00000071  00000+0  18244-3 0  9995
2 37740  51.9725 278.8774 0000820  75.3192  89.2093 12.62263637629031
GLOBALSTAR M091         
1 37741U 11033C   25059.93922924 -.00000094  00000+0  52220-4 0  9999
2 37741  51.9978 242.6886 0000859  73.0411  79.2922 12.62265415629515
GLOBALSTAR M085         
1 37742U 11033D   25060.54347615 -.00000101  00000+0  17038-4 0  9994
2 37742  51.9856 191.9810 0000793  90.4247 349.0505 12.62265736630592
GLOBALSTAR M081         
1 37743U 11033E   25060.57011062 -.00000103  00000+0  46768-5 0  9997
2 37743  51.9944 194.6191 0000982  93.9856 347.2187 12.62261180630637
GLOBALSTAR M089         
1 37744U 11033F   25060.53583204 -.00000071  00000+0  18528-3 0  9991
2 37744  51.9924 148.9733 0000895 124.9734 339.9885 12.62266616631344
GLOBALSTAR M084         
1 38040U 11080A   25060.06845498 -.00000090  00000+0  75624-4 0  9999
2 38040  52.0033  17.6246 0000560 109.6930 330.5998 12.62262710609297
GLOBALSTAR M080         
1 38041U 11080B   25059.95486969 -.00000095  00000+0  46934-4 0  9997
2 38041  52.0085  19.5417 0000820 106.5981 295.7161 12.62277471609123
GLOBALSTAR M082         
1 38042U 11080C   25059.89821958 -.00000069  00000+0  19135-3 0  9995
2 38042  52.0105 335.1482 0000531  27.4420  59.2176 12.62263106609820
GLOBALSTAR M092         
1 38043U 11080D   25059.73217987 -.00000106  00000+0 -13523-4 0  9999
2 38043  52.0084  66.0214 0000342 123.9723  47.9017 12.62273105608252
GLOBALSTAR M090         
1 38044U 11080E   25059.84334042 -.00000060  00000+0  24299-3 0  9993
2 38044  51.9910 329.2652 0000635  54.9766  21.0873 12.62267348609935
GLOBALSTAR M086         
1 38045U 11080F   25059.78171184 -.00000065  00000+0  21771-3 0  9990
2 38045  51.9920 329.9952 0001518  76.5885 319.7134 12.62267296609872
GLOBALSTAR M097         
1 39072U 13005A   25059.80038018 -.00000098  00000+0  33192-4 0  9998
2 39072  52.0027 244.3750 0001034  80.0924 280.0059 12.62270653557123
GLOBALSTAR M093         
1 39073U 13005B   25060.48612295 -.00000101  00000+0  15123-4 0  9999
2 39073  51.9789 235.7586 0001009  82.2082 277.8899 12.62262168557284
GLOBALSTAR M094         
1 39074U 13005C   25059.53626106 -.00000086  00000+0  97196-4 0  9992
2 39074  51.9952 152.9269 0000780  91.4045 268.6911 12.62268532558657
GLOBALSTAR M096         
1 39075U 13005D   25059.70788331 -.00000098  00000+0  35014-4 0  9995
2 39075  52.0058 200.8342 0000899  83.1878 276.9091 12.62268751557591
GLOBALSTAR M078         
1 39076U 13005E   25059.83913305 -.00000096  00000+0  41646-4 0  9997
2 39076  51.9875 285.0900 0000598 354.8721   5.2139 12.62259628556232
GLOBALSTAR M095         
1 39077U 13005F   25059.78687376 -.00000065  00000+0  21722-3 0  9996
2 39077  51.9791 282.5037 0000889  41.3473 318.7461 12.62267283556087
GLOBALSTAR M087         
1 52888U 22064A   25060.21347992 -.00000096  00000+0  43307-4 0  9991
2 52888  51.9794  62.6052 0000294  73.1077 286.9822 12.62269054131738
